INTERCOSMOS 24          
1 20261U 89080A   25144.44410672  .00000507  00000+0  15000-3 0  9990
2 20261  82.6046 292.4884 1189440 243.7157 103.7068 12.58991124630390
SL-14 R/B               
1 20262U 89080C   25144.53854254  .00000428  00000+0  12003-3 0  9991
2 20262  82.5950 358.8536 1231678 125.6038 246.6215 12.50288921624011
DELTA 1 R/B             
1 20323U 89089B   25144.30576091  .00000301  00000+0  83836-4 0  9996
2 20323  97.1072  32.2989 0068370 317.6344  41.9586 14.50381503853787
ARIANE 40 R/B           
1 20443U 90005H   25144.42662910  .00000262  00000+0  97359-4 0  9999
2 20443  98.3468 208.0157 0009984   2.5690 357.5548 14.39624258851182
DELTA 2 R/B(1)          
1 20453U 90008B   25144.53909961  .00023323  00000+0  54259-3 0  9999
2 20453  35.6104 231.1108 0142470 150.6045 210.2787 15.31402036881492
COSMOS 2058             
1 20465U 90010A   25144.57209402  .00002438  00000+0  15345-3 0  9999
2 20465  82.4775 331.4759 0009468 246.3321 113.6914 15.08734292898610
SL-14 R/B               
1 20466U 90010B   25144.50913025  .00000363  00000+0  41319-4 0  9992
2 20466  82.5024 178.9036 0020236 168.4580 191.7103 14.83242494885611
SL-14 R/B               
1 20511U 90018B   25144.45224824  .00000419  00000+0  50028-4 0  9996
2 20511  82.5195 133.3861 0015521 328.5046  31.5238 14.81827268879742
HST                     
1 20580U 90037B   25144.55505639  .00004785  00000+0  17763-3 0  9998
2 20580  28.4675 205.0751 0002612 177.6256 182.4351 15.25081200729077
SL-16 R/B               
1 20625U 90046B   25144.56235549  .00000126  00000+0  89501-4 0  9994
2 20625  70.9986 185.1032 0013497  15.0539 345.0983 14.14967047807496
COSMOS 2084             
1 20663U 90055A   25144.47025715  .00002663  00000+0  20034-3 0  9991
2 20663  62.7904 240.3181 0064606 152.1389 208.3195 15.03559437892804
SL-6 R/B(2)             
1 20666U 90055D   25144.43270299  .00001414  00000+0  12173-3 0  9997
2 20666  62.7811 156.1164 0030205 186.3495 173.7225 15.01939382894725
SL-8 R/B                
1 20775U 90078B   25144.46227400  .00007080  00000+0  23876-3 0  9999
2 20775  82.9065 148.9444 0402143 258.2526  97.3320 14.77902259766437
SL-8 R/B                
1 21088U 91006B   25144.40435549  .00000109  00000+0  93626-4 0  9994
2 21088  82.9445  25.2494 0023586 123.3601  49.9156 13.77452535724244
OKEAN-3                 
1 21397U 91039A   25144.46138264  .00002966  00000+0  22017-3 0  9991
2 21397  82.5178 256.5410 0013790 231.1618 128.8378 15.02647528821570
COSMOS 2151             
1 21422U 91042A   25144.58407305  .00001203  00000+0  97599-4 0  9993
2 21422  82.4978   2.1723 0011638 322.7042  37.3372 14.98776207819874
SL-14 R/B               
1 21423U 91042B   25144.44591746  .00000397  00000+0  47531-4 0  9996
2 21423  82.4912 131.3740 0018630 109.8184 250.5041 14.81525726810241
ERS-1                   
1 21574U 91050A   25144.43381176  .00000242  00000+0  92738-4 0  9993
2 21574  98.7918 150.3578 0031702 342.4422  17.5667 14.39183505774128
ARIANE 40 R/B           
1 21610U 91050F   25144.40904979  .00000290  00000+0  10001-3 0  9998
2 21610  98.2404 201.8130 0002373 207.6672 152.4392 14.42619674777280
INTERCOSMOS 25          
1 21819U 91086A   25144.52660415  .00002060  00000+0  40136-3 0  9994
2 21819  82.5999 124.7265 1491728  19.8993 345.4413 12.10942990461678
SL-8 R/B                
1 21876U 92008B   25144.45988125  .00000150  00000+0  13928-3 0  9992
2 21876  82.9247 122.8785 0033650 220.8165 253.8524 13.75929090669647
SL-8 R/B                
1 21938U 92020B   25144.61469635  .00000131  00000+0  11951-3 0  9996
2 21938  82.9318   8.4545 0029768  27.2065   1.7850 13.75503019661396
USA 81                  
1 21949U 92023A   25144.43352094  .00000181  00000+0  59609-4 0  9999
2 21949  85.0053 298.2881 0001369 110.9248 249.2091 14.32237078 53383
COSMOS 2219             
1 22219U 92076A   25144.47773789 -.00000168  00000+0 -63257-4 0  9991
2 22219  71.0614 262.6198 0020628 281.1810  78.6994 14.14029153677496
SL-16 R/B               
1 22220U 92076B   25144.24927844  .00000108  00000+0  77898-4 0  9999
2 22220  71.0001  78.0470 0012952 186.1170 325.9190 14.16801505680833
COSMOS 2221             
1 22236U 92080A   25144.24461510  .00001425  00000+0  12831-3 0  9992
2 22236  82.5054 195.9345 0016383  85.9250 274.3843 14.94805318737536
SL-16 R/B               
1 22285U 92093B   25144.48063450  .00000233  00000+0  14359-3 0  9990
2 22285  71.0217 251.3625 0003653 359.5477   0.5642 14.15392247672235
COSMOS 2228             
1 22286U 92094A   25144.50480636  .00001606  00000+0  14183-3 0  9994
2 22286  82.5171 153.8218 0018268 189.9977 170.0885 14.95632420732815
SL-16 R/B               
1 22566U 93016B   25144.28043391  .00000293  00000+0  17527-3 0  9994
2 22566  71.0064 103.0016 0008901  34.6214 325.5486 14.15254431661220
COSMOS 2242             
1 22626U 93024A   25144.50646706  .00001441  00000+0  12885-3 0  9992
2 22626  82.5195 182.9251 0016487 192.0135 168.0695 14.95093312737161
SL-16 R/B               
1 22803U 93059B   25144.44053455  .00000121  00000+0  83815-4 0  9999
2 22803  70.9904 261.0643 0019225 288.5460  71.3575 14.17171613638816
ARIANE 40 R/B           
1 22830U 93061H   25144.43818089  .00000208  00000+0  92401-4 0  9990
2 22830  98.5273 213.3862 0011787  63.9990 296.2406 14.32652056652686
COSMOS 2278             
1 23087U 94023A   25144.25782725 -.00000209  00000+0 -84597-4 0  9991
2 23087  71.0539  60.6039 0006809 118.1597 242.0214 14.14292809603886
SL-16 R/B               
1 23088U 94023B   25144.22667251  .00000247  00000+0  15223-3 0  9994
2 23088  71.0001 318.7591 0003283 340.8924  19.2075 14.14966644605147
SL-16 R/B               
1 23343U 94074B   25144.13477900  .00000425  00000+0  64241-4 0  9997
2 23343  97.7405 181.1930 0008173  85.5456 331.5949 14.79019956644441
SL-16 R/B               
1 23405U 94077B   25144.46246485 -.00000026  00000+0  10960-4 0  9994
2 23405  70.9827 240.9406 0004694 254.8447 105.2156 14.15514224575300
ARIANE 40+ R/B          
1 23561U 95021B   25144.46951912  .00000262  00000+0  98053-4 0  9995
2 23561  98.4839 214.2529 0005532 291.3719  79.1960 14.39517766577631
SL-16 R/B               
1 23705U 95058B   25144.52571145  .00000210  00000+0  13185-3 0  9993
2 23705  71.0223  67.3267 0013530 209.0456 150.9916 14.15449552526939
SL-16 R/B               
1 24298U 96051B   25144.50452311 -.00000198  00000+0 -80327-4 0  9996
2 24298  70.7702  67.2491 0016891 209.3970 150.6201 14.12420559480813
ORBVIEW 2 (SEASTAR)     
1 24883U 97037A   25144.40524611  .00000252  00000+0  10428-3 0  9996
2 24883  98.8233 296.6889 0002363 164.2703 195.8555 14.35239259466978
SL-16 R/B               
1 25400U 98043G   25144.43888996  .00000045  00000+0  37570-4 0  9990
2 25400  98.7871  91.4807 0010649 129.4342 230.7781 14.25968187397768
SL-16 R/B               
1 25407U 98045B   25144.25445335  .00000272  00000+0  16145-3 0  9991
2 25407  71.0119  70.2236 0005466 113.7056 246.4641 14.16139177386120
ISS (ZARYA)             
1 25544U 98067A   25144.67773597  .00009930  00000+0  18358-3 0  9995
2 25544  51.6379  63.5474 0002406 138.3852 287.8895 15.49710938511511
CZ-4B R/B               
1 25732U 99025C   25144.39892457  .00000064  00000+0  51484-4 0  9992
2 25732  98.7010 189.8545 0038311  96.4403 274.6186 14.18186606347164
OKEAN-O                 
1 25860U 99039A   25144.42828292  .00000590  00000+0  85453-4 0  9996
2 25860  97.9846 201.5689 0001457 115.4589 244.6773 14.79769959391605
SL-16 R/B               
1 25861U 99039B   25144.41991568  .00000525  00000+0  74206-4 0  9995
2 25861  98.0372 198.2291 0016269 113.5227 246.7696 14.81254167394038
DELTA 2 R/B             
1 25876U 99041E   25144.63701772  .00000414  00000+0  10546-3 0  9997
2 25876  51.7658  14.6616 0506915 215.9872 140.5918 14.10699091322214
HELIOS 1B               
1 25977U 99064A   25144.49668284  .00001090  00000+0  13000-3 0  9997
2 25977  98.1980  33.1196 0000539  42.3612 317.7644 14.86424642642280
TERRA                   
1 25994U 99068A   25144.61848487  .00000399  00000+0  91037-4 0  9997
2 25994  97.9992 203.3807 0002927  44.5752 110.4249 14.60686621352872
SL-16 R/B               
1 26070U 00006B   25144.54824358 -.00000203  00000+0 -78941-4 0  9995
2 26070  71.0026 345.7738 0018785 262.5775  97.3214 14.15772211307639
TITAN 4B R/B            
1 26474U 00047B   25144.48273454  .00003098  00000+0  21063-3 0  9991
2 26474  67.9881 132.0130 0043457 359.1576   0.9491 15.07043467349302
ENVISAT                 
1 27386U 02009A   25144.49726279  .00000089  00000+0  42607-4 0  9998
2 27386  98.3327 100.7391 0001248  91.1264  19.0343 14.38913890217588
IDEFIX & ARIANE 42P R/B 
1 27422U 02021B   25144.55995042  .00000219  00000+0  10029-3 0  9993
2 27422  98.5608  82.1769 0011207 324.3616  35.6817 14.30781443202676
AQUA                    
1 27424U 02022A   25144.58365816  .00000816  00000+0  17521-3 0  9996
2 27424  98.3768 102.6401 0002071  91.3385 328.7265 14.61259644226505
CZ-4B R/B               
1 27432U 02024C   25144.40261558  .00000048  00000+0  47450-4 0  9998
2 27432  98.9246 193.5288 0051133 123.4969 248.5077 14.14481917188348
MIDORI II (ADEOS-II)    
1 27597U 02056A   25144.58678096  .00000282  00000+0  12921-3 0  9997
2 27597  98.7371  96.8598 0002082 100.5162 259.6254 14.29034817169007
H-2A R/B                
1 27601U 02056E   25144.64294160  .00000250  00000+0  10299-3 0  9997
2 27601  98.2780 111.8275 0069429 303.8894 230.1322 14.33497649172690
CZ-4B R/B               
1 28059U 03049C   25144.45266487  .00000404  00000+0  10474-3 0  9994
2 28059  98.6583 123.6302 0049218  35.6444 324.8022 14.54666175144546
CZ-2C R/B               
1 28222U 04012C   25144.06553899  .00015813  00000+0  35077-3 0  9996
2 28222  97.7682 181.8496 0021752 282.8758  77.0059 15.43578200159368
